{
  "type": "FeatureCollection",
  "features": [
    {
      "type": "Feature",
      "properties": {
        "norad_id": 66997,
        "name": "2025-292E",
        "group": "last-30-days",
        "lat": -25.20976177586489,
        "lon": -113.55999607141885,
        "alt_km": 549.6908470694152,
        "timestamp": "2025-12-23T14:49:07.968855+00:00",
        "meta_object_name": "2025-292E",
        "meta_object_id": "2025-292E",
        "meta_epoch": "2025-12-23T07:31:27.737472",
        "meta_mean_motion": 15.04751827,
        "meta_eccentricity": 0.00139597,
        "meta_inclination": 97.652,
        "meta_ra_of_asc_node": 69.7678,
        "meta_arg_of_pericenter": 237.9883,
        "meta_mean_anomaly": 121.9988,
        "meta_ephemeris_type": 0,
        "meta_classification_type": "U",
        "meta_norad_cat_id": 66997,
        "meta_element_set_no": 999,
        "meta_rev_at_epoch": 197,
        "meta_bstar": 0.00029016744,
        "meta_mean_motion_dot": 4.036e-05,
        "meta_mean_motion_ddot": 0,
        "tle_line1": "1 66997U 25292E   25357.31351548  .00004036  00000+0  29017-3 0  9993",
        "tle_line2": "2 66997  97.6520  69.7678 0013959 237.9883 121.9988 15.04751827  1973"
      },
      "geometry": {
        "type": "Point",
        "coordinates": [
          -113.55999607141885,
          -25.20976177586489
        ]
      }
    },
    {
      "type": "Feature",
      "properties": {
        "norad_id": 66998,
        "name": "2025-292F",
        "group": "last-30-days",
        "lat": -32.92360617321295,
        "lon": -114.92010467242417,
        "alt_km": 548.4125210968405,
        "timestamp": "2025-12-23T14:49:07.968877+00:00",
        "meta_object_name": "2025-292F",
        "meta_object_id": "2025-292F",
        "meta_epoch": "2025-12-23T05:53:41.386560",
        "meta_mean_motion": 15.0492762,
        "meta_eccentricity": 0.00150886,
        "meta_inclination": 97.6538,
        "meta_ra_of_asc_node": 69.7068,
        "meta_arg_of_pericenter": 239.2225,
        "meta_mean_anomaly": 120.7516,
        "meta_ephemeris_type": 0,
        "meta_classification_type": "U",
        "meta_norad_cat_id": 66998,
        "meta_element_set_no": 999,
        "meta_rev_at_epoch": 197,
        "meta_bstar": 0.00039669937,
        "meta_mean_motion_dot": 5.57e-05,
        "meta_mean_motion_ddot": 0,
        "tle_line1": "1 66998U 25292F   25357.24561790  .00005570  00000+0  39670-3 0  9998",
        "tle_line2": "2 66998  97.6538  69.7068 0015088 239.2225 120.7516 15.04927620  1976"
      },
      "geometry": {
        "type": "Point",
        "coordinates": [
          -114.92010467242417,
          -32.92360617321295
        ]
      }
    },
    {
      "type": "Feature",
      "properties": {
        "norad_id": 66999,
        "name": "2025-292G",
        "group": "last-30-days",
        "lat": -35.953083264024336,
        "lon": -115.52000058713965,
        "alt_km": 548.6089628463696,
        "timestamp": "2025-12-23T14:49:07.968890+00:00",
        "meta_object_name": "2025-292G",
        "meta_object_id": "2025-292G",
        "meta_epoch": "2025-12-23T05:52:53.812992",
        "meta_mean_motion": 15.04991311,
        "meta_eccentricity": 0.00146138,
        "meta_inclination": 97.6547,
        "meta_ra_of_asc_node": 69.7088,
        "meta_arg_of_pericenter": 241.2304,
        "meta_mean_anomaly": 118.7455,
        "meta_ephemeris_type": 0,
        "meta_classification_type": "U",
        "meta_norad_cat_id": 66999,
        "meta_element_set_no": 999,
        "meta_rev_at_epoch": 197,
        "meta_bstar": 0.00039326486,
        "meta_mean_motion_dot": 5.53e-05,
        "meta_mean_motion_ddot": 0,
        "tle_line1": "1 66999U 25292G   25357.24506728  .00005530  00000+0  39326-3 0  9993",
        "tle_line2": "2 66999  97.6547  69.7088 0014613 241.2304 118.7455 15.04991311  1970"
      },
      "geometry": {
        "type": "Point",
        "coordinates": [
          -115.52000058713965,
          -35.953083264024336
        ]
      }
    },
    {
      "type": "Feature",
      "properties": {
        "norad_id": 67000,
        "name": "2025-292H",
        "group": "last-30-days",
        "lat": -36.418597737003836,
        "lon": -115.6152771793739,
        "alt_km": 548.5292883555348,
        "timestamp": "2025-12-23T14:49:07.968900+00:00",
        "meta_object_name": "2025-292H",
        "meta_object_id": "2025-292H",
        "meta_epoch": "2025-12-23T05:52:46.852608",
        "meta_mean_motion": 15.05016095,
        "meta_eccentricity": 0.00145771,
        "meta_inclination": 97.6561,
        "meta_ra_of_asc_node": 69.711,
        "meta_arg_of_pericenter": 241.0175,
        "meta_mean_anomaly": 118.959,
        "meta_ephemeris_type": 0,
        "meta_classification_type": "U",
        "meta_norad_cat_id": 67000,
        "meta_element_set_no": 999,
        "meta_rev_at_epoch": 184,
        "meta_bstar": 0.00048907662,
        "meta_mean_motion_dot": 6.899e-05,
        "meta_mean_motion_ddot": 0,
        "tle_line1": "1 67000U 25292H   25357.24498672  .00006899  00000+0  48908-3 0  9990",
        "tle_line2": "2 67000  97.6561  69.7110 0014577 241.0175 118.9590 15.05016095  1845"
      },
      "geometry": {
        "type": "Point",
        "coordinates": [
          -115.6152771793739,
          -36.418597737003836
        ]
      }
    },
    {
      "type": "Feature",
      "properties": {
        "norad_id": 67001,
        "name": "2025-292J",
        "group": "last-30-days",
        "lat": -7.987696681673909,
        "lon": -111.01660688076147,
        "alt_km": 549.6102643432832,
        "timestamp": "2025-12-23T14:49:07.968910+00:00",
        "meta_object_name": "2025-292J",
        "meta_object_id": "2025-292J",
        "meta_epoch": "2025-12-23T04:24:25.749504",
        "meta_mean_motion": 15.04407664,
        "meta_eccentricity": 0.00147483,
        "meta_inclination": 97.6542,
        "meta_ra_of_asc_node": 69.6351,
        "meta_arg_of_pericenter": 230.2621,
        "meta_mean_anomaly": 129.7306,
        "meta_ephemeris_type": 0,
        "meta_classification_type": "U",
        "meta_norad_cat_id": 67001,
        "meta_element_set_no": 999,
        "meta_rev_at_epoch": 196,
        "meta_bstar": 0.00039586422,
        "meta_mean_motion_dot": 5.481e-05,
        "meta_mean_motion_ddot": 0,
        "tle_line1": "1 67001U 25292J   25357.18363136  .00005481  00000+0  39586-3 0  9998",
        "tle_line2": "2 67001  97.6542  69.6351 0014748 230.2621 129.7306 15.04407664  1960"
      },
      "geometry": {
        "type": "Point",
        "coordinates": [
          -111.01660688076147,
          -7.987696681673909
        ]
      }
    },
    {
      "type": "Feature",
      "properties": {
        "norad_id": 67002,
        "name": "ZK-1A R/B",
        "group": "last-30-days",
        "lat": 24.215048995852868,
        "lon": -105.21114374534503,
        "alt_km": 531.4526433857955,
        "timestamp": "2025-12-23T14:49:07.968923+00:00",
        "meta_object_name": "ZK-1A R/B",
        "meta_object_id": "2025-292K",
        "meta_epoch": "2025-12-23T04:53:52.035072",
        "meta_mean_motion": 15.57899688,
        "meta_eccentricity": 0.02080167,
        "meta_inclination": 97.7203,
        "meta_ra_of_asc_node": 70.8426,
        "meta_arg_of_pericenter": 327.3841,
        "meta_mean_anomaly": 31.4702,
        "meta_ephemeris_type": 0,
        "meta_classification_type": "U",
        "meta_norad_cat_id": 67002,
        "meta_element_set_no": 999,
        "meta_rev_at_epoch": 202,
        "meta_bstar": 0.00074851113,
        "meta_mean_motion_dot": 0.00159525,
        "meta_mean_motion_ddot": 8.975635e-06,
        "tle_line1": "1 67002U 25292K   25357.20407448  .00159525  89756-5  74851-3 0  9991",
        "tle_line2": "2 67002  97.7203  70.8426 0208016 327.3841  31.4702 15.57899688  2024"
      },
      "geometry": {
        "type": "Point",
        "coordinates": [
          -105.21114374534503,
          24.215048995852868
        ]
      }
    },
    {
      "type": "Feature",
      "properties": {
        "norad_id": 67003,
        "name": "STARLINK-35660",
        "group": "last-30-days",
        "lat": 13.503462387339468,
        "lon": -62.72101610461109,
        "alt_km": 321.4533421849201,
        "timestamp": "2025-12-23T14:49:07.968946+00:00",
        "meta_object_name": "STARLINK-35660",
        "meta_object_id": "2025-293A",
        "meta_epoch": "2025-12-23T06:00:00.999648",
        "meta_mean_motion": 15.84831012,
        "meta_eccentricity": 0.00037425,
        "meta_inclination": 69.9941,
        "meta_ra_of_asc_node": 293.3141,
        "meta_arg_of_pericenter": 276.6431,
        "meta_mean_anomaly": 162.9288,
        "meta_ephemeris_type": 0,
        "meta_classification_type": "U",
        "meta_norad_cat_id": 67003,
        "meta_element_set_no": 999,
        "meta_rev_at_epoch": 186,
        "meta_bstar": -0.0077992445,
        "meta_mean_motion_dot": -0.01596508,
        "meta_mean_motion_ddot": 0,
        "tle_line1": "1 67003U 25293A   25357.25001157 -.01596508  00000+0 -77992-2 0  9991",
        "tle_line2": "2 67003  69.9941 293.3141 0003742 276.6431 162.9288 15.84831012  1868"
      },
      "geometry": {
        "type": "Point",
        "coordinates": [
          -62.72101610461109,
          13.503462387339468
        ]
      }
    }
  ]
}